C/2016 J2 (Denneau),e,130.3273,186.4319,318.6582,647.6424,0.0000598,0.99765486,0.0000,04/12.5521/2016,2000,g 17.0,4.0
# From MPEC 2021-BE3
P/2016 J3 (STEREO),e,23.3838,257.7902,210.7331,2.795253,0.2108979,0.81168845,3.5040,02/11.0/2021,2000,g 19.0,4.0
# From MPC102099
C/2016 KA (Catalina),e,104.6947,317.5049,63.2249,23622,0.0000003,0.99977109,0.0000,02/02.9385/2016,2000,g  8.5,4.0
# From MPC104792
C/2016 K1 (LINEAR),h,07/13.5402/2016,90.9422,325.6135,18.3180,1.000182,2.295729,2000,13.0,4.0
# From MPEC 2021-BE3
C/2016 M1 (PANSTARRS),e,90.9863,92.2128,209.9043,8256,0.0000013,0.99973195,0.0000,08/10.4068/2018,2000,g  5.0,4.0
# From MPC115881
C/2016 N4 (MASTER),e,72.6220,353.9944,55.9401,2768,0.0000068,0.99884455,0.0000,09/16.6532/2017,2000,g  8.5,4.0
# From MPC119995
C/2016 N6 (PANSTARRS),e,105.8410,298.9886,162.7171,1428,0.0000183,0.99813342,0.0000,07/18.0021/2018,2000,g  7.0,4.0
# From MPC102099
P/2016 P1 (PANSTARRS),e,24.4563,319.5647,270.0862,3.193746,0.1726845,0.28916190,339.4110,02/11.0/2021,2000,g 15.0,4.0
# From MPC102099
C/2016 P4 (PANSTARRS),e,29.8804,320.7249,356.2325,413.2234,0.0001173,0.98572851,0.0000,10/18.5625/2016,2000,g 10.5,4.0
# From MPEC 2021-BE3
C/2016 Q2 (PANSTARRS),h,05/11.8015/2021,109.3883,322.2964,84.5221,1.000314,7.081926,2000,6.0,4.0
# From MPC102955
C/2016 Q4 (Kowalski),e,7.2561,271.2900,99.4417,16.93360,0.0141443,0.58152065,15.7032,02/11.0/2021,2000,g  7.0,4.0
# From MPC119995
C/2016 R2 (PANSTARRS),e,58.2355,80.5607,33.1567,514.2289,0.0000845,0.99493971,0.0000,05/09.1138/2018,2000,g  7.0,4.0
# From MPC102099
C/2016 R3 (Borisov),e,53.0335,78.7490,118.1790,198.3400,0.0003528,0.99771372,0.0000,10/10.0882/2016,2000,g 18.0,4.0
# From MPC109144
P/2016 R4 (Gibbs),e,10.8733,168.2703,174.0273,5.331530,0.0800620,0.47627538,133.2988,02/11.0/2021,2000,g 12.5,4.0
# From MPC105543
P/2016 S1 (PANSTARRS),e,94.6750,227.5496,273.2782,8.278431,0.0413792,0.70999003,59.0895,02/11.0/2021,2000,g 12.0,4.0
# From MPC105238
C/2016 T1 (Matheny),e,129.8503,56.3281,137.4702,124.9718,0.0007055,0.98155226,0.0000,02/01.3693/2017,2000,g 14.5,4.0
# From MPC107685
C/2016 T2 (Matheny),e,81.3959,339.1800,92.2105,99.22506,0.0009972,0.98080971,0.0000,12/29.3403/2016,2000,g 14.5,4.0
# From MPC110082
C/2016 T3 (PANSTARRS),e,22.6821,271.7285,194.6340,131.1631,0.0006561,0.97981518,0.0000,09/06.4240/2017,2000,g 10.5,4.0
# From MPC103847
C/2016 U1 (NEOWISE),h,01/13.8327/2017,46.3083,61.5487,162.8197,1.000406,0.323349,2000,17.0,4.0
# From MPC106345
C/2016 VZ18 (PANSTARRS),e,23.9784,98.9204,36.4077,163.1171,0.0004731,0.99439349,0.0000,03/05.4362/2017,2000,g 19.5,4.0
# From MPC106345
P/2016 WM48 (Lemmon),e,117.4522,59.9039,36.0837,8.165337,0.0422418,0.78384780,61.1783,02/11.0/2021,2000,g 15.0,4.0
# From MPC119995
C/2016 X1 (Lemmon),e,26.4531,256.4068,224.4976,1278,0.0000216,0.99408381,0.0000,04/28.5226/2019,2000,g  6.0,4.0
# From MPC108594
C/2017 A1 (PANSTARRS),e,49.7922,121.0444,2.0111,76.09722,0.0014847,0.96990216,2.0294,02/11.0/2021,2000,g 13.0,4.0
# From MPC108594
C/2017 A3 (Elenin),e,98.5288,97.8966,303.9956,43.44090,0.0034424,0.91147295,5.0676,02/11.0/2021,2000,g  9.5,4.0
# From MPC114598
C/2017 AB5 (PANSTARRS),e,32.4417,42.6386,78.3283,2338,0.0000087,0.99605905,0.0000,02/15.3614/2018,2000,g  5.5,4.0
# From MPEC 2021-BE3
C/2017 B3 (LINEAR),h,02/02.5706/2019,54.1689,2.1793,284.7956,1.001606,3.923198,2000,6.0,4.0
# From MPC103847
P/2017 B4 (PANSTARRS),e,20.0584,121.4578,11.0197,4.410520,0.1064068,0.36495152,359.9130,01/05.0/2017,2000,g 14.5,4.0
# From MPC104793
C/2017 C1 (NEOWISE),e,65.7608,357.5501,110.0639,20.58087,0.0105562,0.92716897,15.6711,02/11.0/2021,2000,g 18.0,4.0
# From MPC107685
C/2017 C2 (PANSTARRS),e,118.5857,249.7714,138.5851,96.13965,0.0010456,0.97480328,0.0000,01/21.4686/2017,2000,g 14.0,4.0
# From MPC104793
P/2017 D1 (Fuls),e,20.7557,82.1803,8.0427,4.829876,0.0928539,0.43625692,157.2101,02/11.0/2021,2000,g 14.0,4.0
# From MPC112391
C/2017 D2 (Barros),e,31.2577,330.9532,334.5344,4975,0.0000028,0.99949930,0.0000,07/14.9026/2017,2000,g 11.0,4.0
# From MPC114598
C/2017 D3 (ATLAS),h,04/27.4071/2017,125.5859,186.6813,340.8596,1.002220,4.972413,2000,8.0,4.0
# From MPC110495
P/2017 D4 (PANSTARRS),e,10.5303,264.9379,212.2774,7.562308,0.0473939,0.62831916,76.7729,02/11.0/2021,2000,g 13.0,4.0
# From MPC104794
C/2017 D5 (PANSTARRS),e,131.0489,92.7138,287.7165,114.3663,0.0008059,0.98112196,0.0000,01/09.6073/2017,2000,g 16.0,4.0
# From MPC106346
C/2017 E1 (Borisov),h,04/10.6072/2017,14.5716,142.5688,152.7021,1.003120,0.902493,2000,14.0,4.0
# From MPC109144
C/2017 E2 (Tsuchinshan),e,79.0839,11.6210,89.3557,21.52677,0.0098681,0.89084321,17.1350,02/11.0/2021,2000,g 11.5,4.0
# From MPC115882
C/2017 E3 (PANSTARRS),h,06/07.9110/2017,70.6407,220.7507,334.5147,1.006563,5.938393,2000,6.5,4.0
# From MPC105239
C/2017 E4 (Lovejoy),h,04/23.6054/2017,88.0641,222.9876,87.0639,1.001498,0.491002,2000,17.0,4.0
# From MPC105239
C/2017 E5 (Lemmon),e,122.6690,206.3713,306.9415,398.3864,0.0001240,0.99551169,0.0000,06/10.8092/2016,2000,g 13.0,4.0
# From MPC111769
C/2017 F1 (Lemmon),h,11/30.0479/2017,146.4620,158.7874,64.7519,1.003342,4.496206,2000,10.5,4.0
# From MPC114598
C/2017 F2 (PANSTARRS),h,11/27.2377/2017,42.5253,38.6767,135.0270,1.003436,6.931725,2000,7.5,4.0
# From MPC104794
P/2017 G1 (PANSTARRS),e,4.7745,249.6288,224.5277,7.286524,0.0501099,0.65291763,87.7280,02/11.0/2021,2000,g 13.5,4.0
# From MPC108595
P/2017 G2 (PANSTARRS),e,47.9459,79.7871,105.5505,8.066199,0.0430230,0.64808930,57.6817,02/11.0/2021,2000,g 13.0,4.0
# From MPC109144
C/2017 G3 (PANSTARRS),e,159.0535,279.4762,73.1222,314.5363,0.0001767,0.99177014,0.0000,04/15.8752/2017,2000,g 14.0,4.0
# From MPC115882
C/2017 K1 (PANSTARRS),h,03/17.6027/2018,154.0152,225.6722,4.4130,1.002484,7.289649,2000,7.0,4.0
# From MPEC 2021-BE3
C/2017 K2 (PANSTARRS),h,12/19.8033/2022,87.5491,88.2509,236.1825,1.000506,1.797989,2000,1.5,4.0
# From MPC106346
P/2017 K3 (Gasparovic),e,4.2733,354.2833,253.4914,5.582503,0.0747241,0.58043746,101.0083,02/11.0/2021,2000,g 14.5,4.0
# From MPC114598
C/2017 K4 (ATLAS),e,16.6801,298.8699,15.2512,28.54286,0.0064634,0.90709431,7.3004,02/11.0/2021,2000,g 10.0,4.0
# From MPC119995
C/2017 K5 (PANSTARRS),h,03/26.4775/2020,82.2368,102.3725,171.9905,1.006390,7.680217,2000,5.0,4.0
# From MPC114599
C/2017 K6 (Jacques),e,57.2461,85.0267,303.7527,1076,0.0000279,0.99814322,0.0000,01/03.4332/2018,2000,g 11.0,4.0
# From MPC110083
C/2017 M3 (PANSTARRS),e,77.5609,7.0190,110.3329,166.8822,0.0004572,0.97209570,0.0000,04/28.1133/2017,2000,g 10.5,4.0
# From MPC118093
C/2017 M4 (ATLAS),h,01/17.9232/2019,105.6480,65.8803,167.5958,1.001254,3.252952,2000,6.0,4.0
# From MPC118841
C/2017 M5 (TOTAS),h,06/04.2333/2018,15.8767,216.2831,92.7664,1.005423,5.994528,2000,6.5,4.0
# From MPC114599
C/2017 O1 (ASASSN),e,39.9126,25.7545,20.8410,357.1979,0.0001460,0.99581707,0.0000,10/14.9347/2017,2000,g 11.0,4.0
# From MPC114599
P/2017 P1 (PANSTARRS),e,7.6960,221.3982,122.3191,7.896389,0.0444182,0.31079431,42.9783,02/11.0/2021,2000,g 10.0,4.0
# From MPC114599
C/2017 P2 (PANSTARRS),e,50.0526,165.4796,132.3788,2200,0.0000095,0.99887921,0.0000,12/06.6407/2017,2000,g 10.0,4.0
# From MPC114599
P/2017 R1 (PANSTARRS),e,2.5741,143.6171,178.5988,4.135064,0.1172143,0.19567658,164.4214,02/11.0/2021,2000,g 13.5,4.0
# From MPC108595
C/2017 S2 (PANSTARRS),e,12.6765,62.3932,305.9706,20.55039,0.0105797,0.82427166,13.3427,02/11.0/2021,2000,g 13.0,4.0
# From MPC114599
C/2017 S3 (PANSTARRS),h,08/16.0562/2018,99.1557,171.2193,255.8378,1.000055,0.207935,2000,11.0,4.0
# From MPC114599
P/2017 S5 (ATLAS),e,11.8514,252.3728,99.8663,3.168032,0.1747913,0.31420300,226.0185,02/11.0/2021,2000,g 14.0,4.0
# From MPC109591
C/2017 S6 (Catalina),h,02/26.3974/2018,152.8674,131.0394,134.8229,1.000656,1.544417,2000,12.5,4.0
# From MPC114599
C/2017 S7 (Lemmon),h,05/25.0455/2017,124.2288,262.7771,187.5733,1.000204,7.607176,2000,7.0,4.0
# From MPC114599
P/2017 S8 (PANSTARRS),e,29.8212,191.6209,254.7558,2.779923,0.2126449,0.39195345,236.2419,02/11.0/2021,2000,g 16.0,4.0
# From MPC107050
P/2017 S9 (PANSTARRS),e,14.1439,146.2225,237.7081,3.153665,0.1759870,0.30517136,228.5658,02/11.0/2021,2000,g 17.0,4.0
# From MPC114600
C/2017 T1 (Heinze),e,96.8449,102.3388,96.9434,21361,0.0000003,0.99997271,0.0000,02/21.1754/2018,2000,g 14.5,4.0
# From MPEC 2021-BE3
C/2017 T2 (PANSTARRS),e,57.2272,64.3774,93.0000,3384,0.0000050,0.99952259,0.0000,05/04.9471/2020,2000,g  5.0,4.0
# From MPC114600
C/2017 T3 (ATLAS),e,88.0758,230.0947,246.8311,1217,0.0000232,0.99932225,0.0000,07/18.8979/2018,2000,g 10.0,4.0
# From MPC115882
P/2017 TW13 (Lemmon),e,44.8499,322.2966,119.9939,7.143934,0.0516176,0.70944265,49.8702,02/11.0/2021,2000,g 15.0,2.0
# From MPC114600
C/2017 U2 (Fuls),e,95.3884,149.7081,147.7974,3307,0.0000052,0.99797232,0.0000,08/28.2274/2017,2000,g  9.0,4.0
# From MPC114600
P/2017 U3 (PANSTARRS),e,15.9163,165.1077,296.8911,4.930115,0.0900365,0.09888271,60.0032,02/11.0/2021,2000,g 11.0,4.0
# From MPC114600
C/2017 U4 (PANSTARRS),h,09/23.4622/2018,158.2162,245.9434,159.0352,1.002419,7.721200,2000,7.0,4.0
# From MPC114600
C/2017 U5 (PANSTARRS),e,18.9737,163.0850,262.0280,16.87502,0.0142180,0.74395981,16.3585,02/11.0/2021,2000,g 12.0,4.0
# From MPC118841
C/2017 U7,h,09/14.0568/2019,142.5908,276.2447,326.3026,1.000732,6.422621,2000,8.3,2.0
# From MPC114600
C/2017 W2 (Leonard),e,98.1989,312.8420,169.0383,13.66131,0.0195194,0.71069107,23.3789,02/11.0/2021,2000,g 11.0,4.0
# From MPC114601
P/2017 W3 (Gibbs),e,18.1687,210.2974,327.7911,7.843179,0.0448710,0.50760255,48.3657,02/11.0/2021,2000,g 10.5,4.0
# From MPC115883
C/2017 X1 (PANSTARRS),e,31.3043,251.1300,283.2868,31.33545,0.0056189,0.85099038,5.4601,02/11.0/2021,2000,g 10.0,4.0
# From MPC117069
C/2017 Y1 (PANSTARRS),e,55.2668,307.5310,134.3096,1816,0.0000127,0.99795562,0.0000,08/31.1566/2017,2000,g 11.5,4.0
# From MPC118841
C/2017 Y2 (PANSTARRS),h,11/04.6913/2020,128.4117,65.9941,147.8838,1.000887,4.632147,2000,15.0,4.0
# From MPC111770
